{
  "last_updated": "2026-05-12T06:00:03.119146",
  "satellites": {
    "98592": {
      "name": "DUTHSat-2",
      "norad_id": "98592",
      "tle": "1 64530U 25135C   26131.87854076  .00007950  00000-0  31150-3 0  9996\n2 64530  97.4573 247.8391 0003643 328.0290  32.0727 15.26044864 49395",
      "epoch": "2026-05-11T21:05:05.921664",
      "fetched_at": "2026-05-12T06:00:03.264115",
      "source": "satnogs"
    },
    "98530": {
      "name": "LAMARR",
      "norad_id": "98530",
      "tle": "1 66673U 25276H   26026.90917087  .00034524  00000-0  16680-2 0  9998\n2 66673  97.4301 102.8338 0007597 141.5941 218.5835 15.18529012  8972",
      "epoch": "2026-01-26T21:49:12.363168",
      "fetched_at": "2026-01-28T06:00:02.884758",
      "source": "satnogs",
      "note": "Using previous TLE (fetch/manual failed today)"
    },
    "98529": {
      "name": "DIRAC",
      "norad_id": "98529",
      "tle": "1 66681U 25276R   26026.63281774  .00024563  00000-0  11745-2 0  9993\n2 66681  97.4280 102.5712 0006320 148.4115 211.7500 15.18972786  8932",
      "epoch": "2026-01-26T15:11:15.452736",
      "fetched_at": "2026-01-28T06:00:02.937152",
      "source": "satnogs",
      "note": "Using previous TLE (fetch/manual failed today)"
    },
    "98518": {
      "name": "MICE-1",
      "norad_id": "98518",
      "tle": "1 66684U 25276U   26131.42220748  .00002337  00000-0  11514-3 0  9994\n2 66684  97.4278 205.6685 0007093 116.4802 243.7161 15.18920337 24832",
      "epoch": "2026-05-11T10:07:58.726272",
      "fetched_at": "2026-05-12T06:00:03.473732",
      "source": "satnogs"
    },
    "68416": {
      "name": "PeakSat",
      "norad_id": "68416",
      "tle": "1 68416U 26067A   26131.86614568  .00004077  00000-0  19803-3 0  9995\n2 68416  97.4523  90.9182 0003790  65.2463 294.9166 15.19008458  6432",
      "epoch": "2026-05-11T20:47:14.986752",
      "fetched_at": "2026-05-12T06:00:03.531578",
      "source": "satnogs"
    },
    "98370": {
      "name": "OptiSat",
      "norad_id": "98370",
      "tle": "1 69696U 69696    26089.46895426  .00000000  00000-0  00000-0 0 00004\n2 69696 097.4414 038.3720 0003145 156.7651 191.1423 15.18459822000011",
      "epoch": "2026-03-30T11:15:17.648064",
      "fetched_at": "2026-04-17T12:47:18.541523",
      "source": "manual"
    },
    "68468": {
      "name": "ERMIS-1",
      "norad_id": "68468",
      "tle": "1 68468U 26067BE  26131.85489245  .00004974  00000-0  25422-3 0  9993\n2 68468  97.4530  90.7892 0007066 165.0420 195.1024 15.17106051  6425",
      "epoch": "2026-05-11T20:31:02.707680",
      "fetched_at": "2026-05-12T06:00:03.590187",
      "source": "satnogs"
    },
    "68420": {
      "name": "ERMIS-2",
      "norad_id": "68420",
      "tle": "1 68420U 26067E   26131.86695740  .00005851  00000-0  28206-3 0  9999\n2 68420  97.4458  90.8861 0003017  64.0423 296.1122 15.19092264  6436",
      "epoch": "2026-05-11T20:48:25.119360",
      "fetched_at": "2026-05-12T06:00:03.651628",
      "source": "satnogs"
    },
    "98367": {
      "name": "ERMIS-3",
      "norad_id": "98367",
      "tle": "1 68425U 26067K   26131.88026692  .00003161  00000-0  15689-3 0  9993\n2 68425  97.4563  90.9232 0003536  94.5204 265.6434 15.18424058  6438",
      "epoch": "2026-05-11T21:07:35.061888",
      "fetched_at": "2026-05-12T06:00:03.717173",
      "source": "satnogs"
    }
  },
  "fetch_log": []
}